ONEWEB-0620             
1 55161U 23004X   25063.53159763 -.00000012  00000+0 -69375-4 0  9990
2 55161  87.8838 114.7260 0001562  87.5228 272.6079 13.11416008104271
ONEWEB-0621             
1 55162U 23004Y   25063.17723865 -.00000335  00000+0 -98246-3 0  9997
2 55162  87.8837 114.7570 0001874 106.1295 254.0039 13.11418291104235
ONEWEB-0622             
1 55163U 23004Z   25063.18232768 -.00000157  00000+0 -47909-3 0  9998
2 55163  87.8840 114.7770 0001097 100.8157 259.3094 13.11418624104203
ONEWEB-0623             
1 55164U 23004AA  25063.50483000 -.00000015  00000+0 -71973-4 0  9994
2 55164  87.9020  99.4624 0001269 112.3559 247.7707 13.17648672105732
ONEWEB-0624             
1 55165U 23004AB  25063.11643989  .00000398  00000+0  10712-2 0  9990
2 55165  87.8808  84.2298 0001718  94.6567 265.4757 13.12443989106399
ONEWEB-0625             
1 55166U 23004AC  25063.49469622 -.00000028  00000+0 -10631-3 0  9995
2 55166  87.9022  99.4628 0002129  97.0234 263.1140 13.17648028105722
ONEWEB-0626             
1 55167U 23004AD  25063.18083660  .00000073  00000+0  15529-3 0  9995
2 55167  87.9022  99.5242 0002179  79.2446 280.8930 13.17648851105680
ONEWEB-0627             
1 55168U 23004AE  25063.47276738  .00000020  00000+0  17204-4 0  9993
2 55168  87.9020  99.4682 0001340 100.6350 259.4932 13.17648058105726
