<?xml version="1.0" encoding="UTF-8"?>
<ndm xmlns:xsi="http://www.w3.org/2001/XMLSchema-instance" xsi:noNamespaceSchemaLocation="https://sanaregistry.org/r/ndmxml_unqualified/ndmxml-2.0.0-master-2.0.xsd">
<omm id="CCSDS_OMM_VERS" version="2.0">
<header><CREATION_DATE/><ORIGINATOR/></header><body><segment><metadata><OBJECT_NAME>ONEWEB-0620</OBJECT_NAME><OBJECT_ID>2023-004X</OBJECT_ID><CENTER_NAME>EARTH</CENTER_NAME><REF_FRAME>TEME</REF_FRAME><TIME_SYSTEM>UTC</TIME_SYSTEM><MEAN_ELEMENT_THEORY>SGP4</MEAN_ELEMENT_THEORY></metadata><data><meanElements><EPOCH>2025-03-04T12:45:30.035232</EPOCH><MEAN_MOTION>13.11416008</MEAN_MOTION><ECCENTRICITY>.0001562</ECCENTRICITY><INCLINATION>87.8838</INCLINATION><RA_OF_ASC_NODE>114.7260</RA_OF_ASC_NODE><ARG_OF_PERICENTER>87.5228</ARG_OF_PERICENTER><MEAN_ANOMALY>272.6079</MEAN_ANOMALY></meanElements><tleParameters><EPHEMERIS_TYPE>0</EPHEMERIS_TYPE><CLASSIFICATION_TYPE>U</CLASSIFICATION_TYPE><NORAD_CAT_ID>55161</NORAD_CAT_ID><ELEMENT_SET_NO>999</ELEMENT_SET_NO><REV_AT_EPOCH>10427</REV_AT_EPOCH><BSTAR>-.69375E-4</BSTAR><MEAN_MOTION_DOT>-.12E-6</MEAN_MOTION_DOT><MEAN_MOTION_DDOT>0</MEAN_MOTION_DDOT></tleParameters></data></segment></body></omm>
<omm id="CCSDS_OMM_VERS" version="2.0">
<header><CREATION_DATE/><ORIGINATOR/></header><body><segment><metadata><OBJECT_NAME>ONEWEB-0621</OBJECT_NAME><OBJECT_ID>2023-004Y</OBJECT_ID><CENTER_NAME>EARTH</CENTER_NAME><REF_FRAME>TEME</REF_FRAME><TIME_SYSTEM>UTC</TIME_SYSTEM><MEAN_ELEMENT_THEORY>SGP4</MEAN_ELEMENT_THEORY></metadata><data><meanElements><EPOCH>2025-03-04T04:15:13.419360</EPOCH><MEAN_MOTION>13.11418291</MEAN_MOTION><ECCENTRICITY>.0001874</ECCENTRICITY><INCLINATION>87.8837</INCLINATION><RA_OF_ASC_NODE>114.7570</RA_OF_ASC_NODE><ARG_OF_PERICENTER>106.1295</ARG_OF_PERICENTER><MEAN_ANOMALY>254.0039</MEAN_ANOMALY></meanElements><tleParameters><EPHEMERIS_TYPE>0</EPHEMERIS_TYPE><CLASSIFICATION_TYPE>U</CLASSIFICATION_TYPE><NORAD_CAT_ID>55162</NORAD_CAT_ID><ELEMENT_SET_NO>999</ELEMENT_SET_NO><REV_AT_EPOCH>10423</REV_AT_EPOCH><BSTAR>-.98246E-3</BSTAR><MEAN_MOTION_DOT>-.335E-5</MEAN_MOTION_DOT><MEAN_MOTION_DDOT>0</MEAN_MOTION_DDOT></tleParameters></data></segment></body></omm>
<omm id="CCSDS_OMM_VERS" version="2.0">
<header><CREATION_DATE/><ORIGINATOR/></header><body><segment><metadata><OBJECT_NAME>ONEWEB-0622</OBJECT_NAME><OBJECT_ID>2023-004Z</OBJECT_ID><CENTER_NAME>EARTH</CENTER_NAME><REF_FRAME>TEME</REF_FRAME><TIME_SYSTEM>UTC</TIME_SYSTEM><MEAN_ELEMENT_THEORY>SGP4</MEAN_ELEMENT_THEORY></metadata><data><meanElements><EPOCH>2025-03-04T04:22:33.111552</EPOCH><MEAN_MOTION>13.11418624</MEAN_MOTION><ECCENTRICITY>.0001097</ECCENTRICITY><INCLINATION>87.8840</INCLINATION><RA_OF_ASC_NODE>114.7770</RA_OF_ASC_NODE><ARG_OF_PERICENTER>100.8157</ARG_OF_PERICENTER><MEAN_ANOMALY>259.3094</MEAN_ANOMALY></meanElements><tleParameters><EPHEMERIS_TYPE>0</EPHEMERIS_TYPE><CLASSIFICATION_TYPE>U</CLASSIFICATION_TYPE><NORAD_CAT_ID>55163</NORAD_CAT_ID><ELEMENT_SET_NO>999</ELEMENT_SET_NO><REV_AT_EPOCH>10420</REV_AT_EPOCH><BSTAR>-.47909E-3</BSTAR><MEAN_MOTION_DOT>-.157E-5</MEAN_MOTION_DOT><MEAN_MOTION_DDOT>0</MEAN_MOTION_DDOT></tleParameters></data></segment></body></omm>
<omm id="CCSDS_OMM_VERS" version="2.0">
<header><CREATION_DATE/><ORIGINATOR/></header><body><segment><metadata><OBJECT_NAME>ONEWEB-0623</OBJECT_NAME><OBJECT_ID>2023-004AA</OBJECT_ID><CENTER_NAME>EARTH</CENTER_NAME><REF_FRAME>TEME</REF_FRAME><TIME_SYSTEM>UTC</TIME_SYSTEM><MEAN_ELEMENT_THEORY>SGP4</MEAN_ELEMENT_THEORY></metadata><data><meanElements><EPOCH>2025-03-04T12:06:57.312000</EPOCH><MEAN_MOTION>13.17648672</MEAN_MOTION><ECCENTRICITY>.0001269</ECCENTRICITY><INCLINATION>87.9020</INCLINATION><RA_OF_ASC_NODE>99.4624</RA_OF_ASC_NODE><ARG_OF_PERICENTER>112.3559</ARG_OF_PERICENTER><MEAN_ANOMALY>247.7707</MEAN_ANOMALY></meanElements><tleParameters><EPHEMERIS_TYPE>0</EPHEMERIS_TYPE><CLASSIFICATION_TYPE>U</CLASSIFICATION_TYPE><NORAD_CAT_ID>55164</NORAD_CAT_ID><ELEMENT_SET_NO>999</ELEMENT_SET_NO><REV_AT_EPOCH>10573</REV_AT_EPOCH><BSTAR>-.71973E-4</BSTAR><MEAN_MOTION_DOT>-.15E-6</MEAN_MOTION_DOT><MEAN_MOTION_DDOT>0</MEAN_MOTION_DDOT></tleParameters></data></segment></body></omm>
<omm id="CCSDS_OMM_VERS" version="2.0">
<header><CREATION_DATE/><ORIGINATOR/></header><body><segment><metadata><OBJECT_NAME>ONEWEB-0624</OBJECT_NAME><OBJECT_ID>2023-004AB</OBJECT_ID><CENTER_NAME>EARTH</CENTER_NAME><REF_FRAME>TEME</REF_FRAME><TIME_SYSTEM>UTC</TIME_SYSTEM><MEAN_ELEMENT_THEORY>SGP4</MEAN_ELEMENT_THEORY></metadata><data><meanElements><EPOCH>2025-03-04T02:47:40.406496</EPOCH><MEAN_MOTION>13.12443989</MEAN_MOTION><ECCENTRICITY>.0001718</ECCENTRICITY><INCLINATION>87.8808</INCLINATION><RA_OF_ASC_NODE>84.2298</RA_OF_ASC_NODE><ARG_OF_PERICENTER>94.6567</ARG_OF_PERICENTER><MEAN_ANOMALY>265.4757</MEAN_ANOMALY></meanElements><tleParameters><EPHEMERIS_TYPE>0</EPHEMERIS_TYPE><CLASSIFICATION_TYPE>U</CLASSIFICATION_TYPE><NORAD_CAT_ID>55165</NORAD_CAT_ID><ELEMENT_SET_NO>999</ELEMENT_SET_NO><REV_AT_EPOCH>10639</REV_AT_EPOCH><BSTAR>.10712E-2</BSTAR><MEAN_MOTION_DOT>.398E-5</MEAN_MOTION_DOT><MEAN_MOTION_DDOT>0</MEAN_MOTION_DDOT></tleParameters></data></segment></body></omm>
<omm id="CCSDS_OMM_VERS" version="2.0">
<header><CREATION_DATE/><ORIGINATOR/></header><body><segment><metadata><OBJECT_NAME>ONEWEB-0625</OBJECT_NAME><OBJECT_ID>2023-004AC</OBJECT_ID><CENTER_NAME>EARTH</CENTER_NAME><REF_FRAME>TEME</REF_FRAME><TIME_SYSTEM>UTC</TIME_SYSTEM><MEAN_ELEMENT_THEORY>SGP4</MEAN_ELEMENT_THEORY></metadata><data><meanElements><EPOCH>2025-03-04T11:52:21.753408</EPOCH><MEAN_MOTION>13.17648028</MEAN_MOTION><ECCENTRICITY>.0002129</ECCENTRICITY><INCLINATION>87.9022</INCLINATION><RA_OF_ASC_NODE>99.4628</RA_OF_ASC_NODE><ARG_OF_PERICENTER>97.0234</ARG_OF_PERICENTER><MEAN_ANOMALY>263.1140</MEAN_ANOMALY></meanElements><tleParameters><EPHEMERIS_TYPE>0</EPHEMERIS_TYPE><CLASSIFICATION_TYPE>U</CLASSIFICATION_TYPE><NORAD_CAT_ID>55166</NORAD_CAT_ID><ELEMENT_SET_NO>999</ELEMENT_SET_NO><REV_AT_EPOCH>10572</REV_AT_EPOCH><BSTAR>-.10631E-3</BSTAR><MEAN_MOTION_DOT>-.28E-6</MEAN_MOTION_DOT><MEAN_MOTION_DDOT>0</MEAN_MOTION_DDOT></tleParameters></data></segment></body></omm>
<omm id="CCSDS_OMM_VERS" version="2.0">
<header><CREATION_DATE/><ORIGINATOR/></header><body><segment><metadata><OBJECT_NAME>ONEWEB-0626</OBJECT_NAME><OBJECT_ID>2023-004AD</OBJECT_ID><CENTER_NAME>EARTH</CENTER_NAME><REF_FRAME>TEME</REF_FRAME><TIME_SYSTEM>UTC</TIME_SYSTEM><MEAN_ELEMENT_THEORY>SGP4</MEAN_ELEMENT_THEORY></metadata><data><meanElements><EPOCH>2025-03-04T04:20:24.282240</EPOCH><MEAN_MOTION>13.17648851</MEAN_MOTION><ECCENTRICITY>.0002179</ECCENTRICITY><INCLINATION>87.9022</INCLINATION><RA_OF_ASC_NODE>99.5242</RA_OF_ASC_NODE><ARG_OF_PERICENTER>79.2446</ARG_OF_PERICENTER><MEAN_ANOMALY>280.8930</MEAN_ANOMALY></meanElements><tleParameters><EPHEMERIS_TYPE>0</EPHEMERIS_TYPE><CLASSIFICATION_TYPE>U</CLASSIFICATION_TYPE><NORAD_CAT_ID>55167</NORAD_CAT_ID><ELEMENT_SET_NO>999</ELEMENT_SET_NO><REV_AT_EPOCH>10568</REV_AT_EPOCH><BSTAR>.15529E-3</BSTAR><MEAN_MOTION_DOT>.73E-6</MEAN_MOTION_DOT><MEAN_MOTION_DDOT>0</MEAN_MOTION_DDOT></tleParameters></data></segment></body></omm>
<omm id="CCSDS_OMM_VERS" version="2.0">
<header><CREATION_DATE/><ORIGINATOR/></header><body><segment><metadata><OBJECT_NAME>ONEWEB-0627</OBJECT_NAME><OBJECT_ID>2023-004AE</OBJECT_ID><CENTER_NAME>EARTH</CENTER_NAME><REF_FRAME>TEME</REF_FRAME><TIME_SYSTEM>UTC</TIME_SYSTEM><MEAN_ELEMENT_THEORY>SGP4</MEAN_ELEMENT_THEORY></metadata><data><meanElements><EPOCH>2025-03-04T11:20:47.101632</EPOCH><MEAN_MOTION>13.17648058</MEAN_MOTION><ECCENTRICITY>.000134</ECCENTRICITY><INCLINATION>87.9020</INCLINATION><RA_OF_ASC_NODE>99.4682</RA_OF_ASC_NODE><ARG_OF_PERICENTER>100.6350</ARG_OF_PERICENTER><MEAN_ANOMALY>259.4932</MEAN_ANOMALY></meanElements><tleParameters><EPHEMERIS_TYPE>0</EPHEMERIS_TYPE><CLASSIFICATION_TYPE>U</CLASSIFICATION_TYPE><NORAD_CAT_ID>55168</NORAD_CAT_ID><ELEMENT_SET_NO>999</ELEMENT_SET_NO><REV_AT_EPOCH>10572</REV_AT_EPOCH><BSTAR>.17204E-4</BSTAR><MEAN_MOTION_DOT>.2E-6</MEAN_MOTION_DOT><MEAN_MOTION_DDOT>0</MEAN_MOTION_DDOT></tleParameters></data></segment></body></omm>

</ndm>
